[{"OBJECT_NAME":"STARLINK-32575","OBJECT_ID":"2024-225L","EPOCH":"2026-03-09T15:35:37.256064","MEAN_MOTION":14.98338005,"ECCENTRICITY":0.00030068,"INCLINATION":70.0022,"RA_OF_ASC_NODE":154.3672,"ARG_OF_PERICENTER":277.8977,"MEAN_ANOMALY":82.184,"EPHEMERIS_TYPE":0,"CLASSIFICATION_TYPE":"U","NORAD_CAT_ID":62173,"ELEMENT_SET_NO":999,"REV_AT_EPOCH":7012,"BSTAR":0.00057818351,"MEAN_MOTION_DOT":6.814e-5,"MEAN_MOTION_DDOT":0},{"OBJECT_NAME":"ATLAS 28E DEB","OBJECT_ID":"1990-031F","EPOCH":"2026-03-09T23:20:22.354944","MEAN_MOTION":14.8907054,"ECCENTRICITY":0.00492653,"INCLINATION":89.9045,"RA_OF_ASC_NODE":245.9973,"ARG_OF_PERICENTER":224.0293,"MEAN_ANOMALY":135.7008,"EPHEMERIS_TYPE":0,"CLASSIFICATION_TYPE":"U","NORAD_CAT_ID":20565,"ELEMENT_SET_NO":999,"REV_AT_EPOCH":36885,"BSTAR":0.00032450895,"MEAN_MOTION_DOT":3.143e-5,"MEAN_MOTION_DDOT":0}]
